OSCAR 7 (AO-7)          
1 07530U 74089B   21247.43358814 -.00000035  00000-0  68550-4 0  9992
2 07530 101.8621 221.8745 0011844 229.9920 282.0914 12.53650116141626
PHASE 3B (AO-10)        
1 14129U 83058B   21247.19302113 -.00000045  00000-0  00000-0 0  9997
2 14129  26.2469 142.0482 5989181   5.2139 359.0262  2.05868715259511
UOSAT 2 (UO-11)         
1 14781U 84021B   21247.45554131  .00000146  00000-0  23885-4 0  9991
2 14781  97.5969 243.4214 0008514 171.4658 188.6703 14.83319278997642
LUSAT (LO-19)           
1 20442U 90005G   21246.68982136  .00000006  00000-0  18844-4 0  9999
2 20442  98.7479 202.8946 0010732 293.9732  66.0327 14.32995885652031
EYESAT A (AO-27)        
1 22825U 93061C   21247.50747408  .00000009  00000-0  21579-4 0  9996
2 22825  98.9160 267.0546 0008818 158.0053 202.1509 14.30123231457286
ITAMSAT (IO-26)         
1 22826U 93061D   21247.52908601  .00000016  00000-0  23886-4 0  9994
2 22826  98.9103 266.9781 0009559 146.2350 213.9442 14.30463356457534
RADIO ROSTO (RS-15)     
1 23439U 94085A   21247.54857516 -.00000037  00000-0  15882-3 0  9992
2 23439  64.8140 248.0376 0163461 321.3497  37.5818 11.27570493 99252
JAS-2 (FO-29)           
1 24278U 96046B   21247.56824193 -.00000025  00000-0  13393-4 0  9993
2 24278  98.5605 305.0368 0349484 304.7852  52.0855 13.53105192236943
TECHSAT 1B (GO-32)      
1 25397U 98043D   21247.25845508 -.00000018  00000-0  11521-4 0  9997
2 25397  98.7754 192.6132 0001047 159.5266 200.5954 14.23714542202707
ISS (ZARYA)             
1 25544U 98067A   21247.67051149  .00002200  00000-0  48737-4 0  9996
2 25544  51.6455 309.6897 0003176 355.0949 156.1355 15.48593569300916
PCSAT (NO-44)           
1 26931U 01043C   21247.52599242 -.00000004  00000-0  30195-4 0  9990
2 26931  67.0503  76.3662 0005448 266.5915  93.4563 14.30630711 40504
SAUDISAT 1C (SO-50)     
1 27607U 02058C   21247.58538586  .00000049  00000-0  27528-4 0  9992
2 27607  64.5544  96.3590 0050471 357.0792   3.0008 14.75783429  6180
CUTE-1 (CO-55)          
1 27844U 03031E   21247.47633380  .00000072  00000-0  52122-4 0  9997
2 27844  98.6815 254.4921 0009300 203.9670 156.1076 14.22329709943214
CUBESAT XI-IV (CO-57)   
1 27848U 03031J   21247.49307667  .00000060  00000-0  47025-4 0  9992
2 27848  98.6871 255.0683 0008959 218.4022 141.6518 14.21904339943041
MOZHAYETS 4 (RS-22)     
1 27939U 03042A   21247.57018701  .00000138  00000-0  33319-4 0  9999
2 27939  98.1516  24.1599 0013512  35.8480 324.3632 14.67016735959121
CUBESAT XI-V            
1 28895U 05043F   21247.30159638  .00000173  00000-0  42014-4 0  9991
2 28895  98.0692  18.8636 0015858 325.9069  34.1113 14.63952115845547
FALCONSAT-3             
1 30776U 07006E   21247.52452614  .00006095  00000-0  14226-3 0  9999
2 30776  35.4348 311.7622 0003043 264.9058  95.1323 15.41586189805316
CUTE-1.7+APD II (CO-65) 
1 32785U 08021C   21247.50764900  .00000381  00000-0  46240-4 0  9995
2 32785  97.6184 223.3139 0014516  99.9776 260.3081 14.88787308723937
DELFI-C3 (DO-64)        
1 32789U 08021G   21247.38263815  .00002669  00000-0  17097-3 0  9992
2 32789  97.3717 279.7033 0010451 224.6954 135.3434 15.09332975728733
SEEDS II (CO-66)        
1 32791U 08021J   21247.39440911  .00000490  00000-0  54199-4 0  9995
2 32791  97.5776 229.0360 0014717  66.1550 294.1210 14.91500851724545
YUBILEINY (RS-30)       
1 32953U 08025A   21247.42325491  .00000021  00000-0  80971-4 0  9995
2 32953  82.5077   1.8139 0020033 162.5191 197.6590 12.43104232602791
KKS-1 (KISEKI)          
1 33499U 09002H   21247.53360537  .00000156  00000-0  30728-4 0  9993
2 33499  98.2568 119.2190 0009757 141.9437 218.2462 14.75692249678070
SWISSCUBE               
1 35932U 09051B   21247.56068239  .00000172  00000-0  49533-4 0  9990
2 35932  98.5980  90.0522 0007012 196.9899 163.1064 14.56572386634474
BEESAT-1                
1 35933U 09051C   21247.52333343  .00000147  00000-0  44010-4 0  9995
2 35933  98.5937  91.8021 0005001 208.4607 151.6317 14.56625483634540
ITUPSAT1                
1 35935U 09051E   21247.50591632  .00000129  00000-0  40611-4 0  9995
2 35935  98.6040  91.9061 0007277 213.2098 146.8642 14.55754862634278
XIWANG-1 (HOPE-1)       
1 36122U 09072B   21247.19347737 -.00000009  00000-0  89333-4 0  9999
2 36122 100.1400 224.6221 0006805 282.4314  77.6038 13.16362314563144
JUGNU                   
1 37839U 11058B   21247.30197594  .00000308  00000-0  21999-4 0  9994
2 37839  19.9610 110.9963 0018916 241.5978 275.5944 14.12723117511628
SRMSAT                  
1 37841U 11058D   21247.52201269  .00000301  00000-0  20397-4 0  9990
2 37841  19.9710 183.1812 0012005  83.0271  73.8088 14.10702668510819
M-CUBED & EXP-1 PRIME   
1 37855U 11061F   21247.51609413  .00001684  00000-0  87395-4 0  9997
2 37855 101.7163 211.9579 0165538 195.3345 164.2818 15.08069867538096
STRAND-1                
1 39090U 13009E   21247.53654678  .00000034  00000-0  26775-4 0  9992
2 39090  98.4230  87.8533 0010087  48.0604 312.1440 14.35179779446384
SOMP                    
1 39134U 13015E   21247.51531695  .00002726  00000-0  12386-3 0  9991
2 39134  64.8623 275.2803 0016669 317.0544  42.9282 15.22982357463251
BEESAT-3                
1 39135U 13015F   21247.42074430  .00001804  00000-0  93338-4 0  9994
2 39135  64.8665 306.0949 0013136 336.2095  23.8423 15.19689403462607
BEESAT-2                
1 39136U 13015G   21247.45273390  .00002016  00000-0  10499-3 0  9996
2 39136  64.8750 312.7154 0018359 242.3279 117.5985 15.19028788462436
ZACUBE-1 (TSHEPISOSAT)  
1 39417U 13066B   21247.40223974  .00000367  00000-0  51996-4 0  9997
2 39417  97.5997 227.6675 0056947 262.2616  97.2129 14.81582332420769
GOMX-1                  
1 39430U 13066Q   21247.57138460  .00000230  00000-0  50719-4 0  9996
2 39430  97.8096 166.0935 0149228 225.4268 133.4665 14.59665209414582
CUBEBUG-2 (LO-74)       
1 39440U 13066AA  21247.34741640  .00000418  00000-0  64551-4 0  9999
2 39440  97.6836 212.8299 0079346 340.6999  19.1210 14.76304768418062
FUNCUBE-1 (AO-73)       
1 39444U 13066AE  21247.40520253  .00000444  00000-0  60323-4 0  9997
2 39444  97.5899 230.0481 0056002 251.8812 107.6298 14.82503808419131
UWE-3                   
1 39446U 13066AG  21247.38758729  .00000391  00000-0  58019-4 0  9997
2 39446  97.6444 219.7152 0068314 302.7639  56.7002 14.78847098418178
SPROUT                  
1 39770U 14029E   21247.26063919  .00001012  00000-0  11461-3 0  9994
2 39770  97.9211 358.4987 0007787 315.1779  44.8805 14.88608388395069
UNISAT-6                
1 40012U 14033C   21247.29550131  .00000265  00000-0  46223-4 0  9994
2 40012  97.6720  85.5560 0058293   6.7876 353.4110 14.74366032387810
DUCHIFAT-1              
1 40021U 14033M   21247.30131113  .00000664  00000-0  72205-4 0  9993
2 40021  97.9754 188.3495 0011189 264.8804  95.1137 14.91449609392030
QB50P1                  
1 40025U 14033R   21247.55554961  .00000539  00000-0  62567-4 0  9995
2 40025  97.9331 178.4569 0010932 280.3836  79.6149 14.89520244391198
NUDT-PHONESAT           
1 40900U 15049B   21247.49980067  .00004504  00000-0  17216-3 0  9994
2 40900  97.4195 261.1204 0010542 211.9857 307.9633 15.27075296330888
ZDPS 2A                 
1 40901U 15049C   21247.48324612  .00002478  00000-0  11865-3 0  9994
2 40901  97.4643 253.7797 0011001 266.0810 247.6414 15.19849551329971
ZDPS 2B                 
1 40902U 15049D   21247.46125323  .00002427  00000-0  11615-3 0  9998
2 40902  97.4680 251.1447 0011086 263.6149 253.8652 15.19891284329948
XW-2A                   
1 40903U 15049E   21247.41314877  .00004625  00000-0  96602-4 0  9990
2 40903  97.2299 301.6533 0013966  88.1040 331.0095 15.45921001334990
KAITUO 1A               
1 40904U 15049F   21247.54716081  .00001040  00000-0  57014-4 0  9990
2 40904  97.4894 248.3410 0012715 286.7504 186.4922 15.16331876329524
2015-049G               
1 40905U 15049G   21247.45520896  .00000925  00000-0  52886-4 0  9991
2 40905  97.5034 245.3512 0013872 286.1288 228.5279 15.15114768329295
XW-2C                   
1 40906U 15049H   21247.47199708  .00001418  00000-0  75228-4 0  9991
2 40906  97.4894 248.8549 0012764 275.0555 244.6624 15.16921050329542
XW-2D                   
1 40907U 15049J   21247.51430662  .00001355  00000-0  71396-4 0  9996
2 40907  97.4873 248.7176 0012119 270.9480 245.4534 15.17264174329581
LILACSAT-2              
1 40908U 15049K   21247.44869294  .00000565  00000-0  34180-4 0  9998
2 40908  97.5070 246.3811 0014205 289.9187 227.3051 15.14544035329187
XW-2F                   
1 40910U 15049M   21247.49734260  .00002029  00000-0  99147-4 0  9991
2 40910  97.4747 251.8961 0012405 253.4469 257.8853 15.19332542329727
XW-2B                   
1 40911U 15049N   21247.52208578  .00001388  00000-0  73234-4 0  9990
2 40911  97.4873 249.3955 0012044 271.8928 247.7793 15.17178944329471
KAITUO 1B               
1 40912U 15049P   21247.49371370  .00002309  00000-0  10433-3 0  9993
2 40912  97.4457 256.2759 0012728 220.5857 292.5145 15.21910162330214
TIANWANG 1A (TW-1A)     
1 40928U 15051D   21247.35866966  .00007356  00000-0  14828-3 0  9997
2 40928  97.0741 270.3948 0009649  16.1195 109.0980 15.46788585333886
LAPAN-A2                
1 40931U 15052B   21247.36252303  .00000689  00000-0  68350-5 0  9990
2 40931   6.0007  49.6085 0012698  77.8674 282.2891 14.76687041320987
E-ST@R-II               
1 41459U 16025D   21247.49562977  .00004321  00000-0  20978-3 0  9991
2 41459  98.1522  28.4796 0159629 155.6956 205.1895 15.08500806294331
AAUSAT 4                
1 41460U 16025E   21247.35903339  .00006673  00000-0  30558-3 0  9996
2 41460  98.1521  32.6195 0145751 138.6747 222.5606 15.11803748294633
NUSAT-1 (FRESCO)        
1 41557U 16033B   21247.53696921  .00002553  00000-0  90883-4 0  9999
2 41557  97.3938 341.0538 0011648 320.3646  50.3674 15.29825718293626
